COMMENT,ORIGINATOR,NORAD_CAT_ID,OBJECT_NAME,OBJECT_TYPE,CLASSIFICATION_TYPE,INTLDES,EPOCH,EPOCH_MICROSECONDS,MEAN_MOTION,ECCENTRICITY,INCLINATION,RA_OF_ASC_NODE,ARG_OF_PERICENTER,MEAN_ANOMALY,EPHEMERIS_TYPE,ELEMENT_SET_NO,REV_AT_EPOCH,BSTAR,MEAN_MOTION_DOT,MEAN_MOTION_DDOT,FILE,TLE_LINE0,TLE_LINE1,TLE_LINE2,OBJECT_ID,OBJECT_NUMBER,SEMIMAJOR_AXIS,PERIOD,APOGEE,PERIGEE,DECAYED,date
GENERATED VIA SPACETRACK.ORG API,18 SPCS,52182,SPACEBEE-128,PAYLOAD,U,22033AB,2023/2/12 4:04,837088,15.32540308,0.0007712,97.3622,126.481,252.1392,107.9009,0,999,4822,0.0018683,0.00059064,0,3787325,0 SPACEBEE-128,1 52182U 22033AB  23043.16992867  .00059064  00000-0  18683-2 0  9990,2 52182  97.3622 126.4810 0007712 252.1392 107.9009 15.32540308 48225,2022-033AB,52182,6846.373,93.962,473.518,462.958,1,2023/4/3
GENERATED VIA SPACETRACK.ORG API,18 SPCS,52182,SPACEBEE-128,PAYLOAD,U,22033AB,2023/2/12 11:54,189312,15.32579285,0.0007653,97.3619,126.806,251.3068,108.7344,0,999,4829,0.002013,0.00063761,0,3787692,0 SPACEBEE-128,1 52182U 22033AB  23043.49639108  .00063761  00000-0  20130-2 0  9991,2 52182  97.3619 126.8060 0007653 251.3068 108.7344 15.32579285 48291,2022-033AB,52182,6846.257,93.959,473.362,462.883,1,2023/4/4
GENERATED VIA SPACETRACK.ORG API,18 SPCS,52182,SPACEBEE-128,PAYLOAD,U,22033AB,2023/2/13 5:08,500320,15.32673635,0.0007696,97.3619,127.5201,248.4604,111.5818,0,999,4838,0.0018586,0.00059002,0,3788755,0 SPACEBEE-128,1 52182U 22033AB  23044.21457755  .00059002  00000-0  18586-2 0  9993,2 52182  97.3619 127.5201 0007696 248.4604 111.5818 15.32673635 48388,2022-033AB,52182,6845.976,93.953,473.11,462.573,1,2023/4/5
GENERATED VIA SPACETRACK.ORG API,18 SPCS,52182,SPACEBEE-128,PAYLOAD,U,22033AB,2023/2/13 11:25,749728,15.32700624,0.0007705,97.3615,127.7808,247.4885,112.5542,0,999,4844,0.0019153,0.00060871,0,3789366,0 SPACEBEE-128,1 52182U 22033AB  23044.47572627  .00060871  00000-0  19153-2 0  9994,2 52182  97.3615 127.7808 0007705 247.4885 112.5542 15.32700624 48441,2022-033AB,52182,6845.896,93.952,473.036,462.486,1,2023/4/6
GENERATED VIA SPACETRACK.ORG API,18 SPCS,52182,SPACEBEE-128,PAYLOAD,U,22033AB,2023/2/14 4:39,407232,15.32785617,0.0007783,97.3613,128.4951,244.8041,115.2394,0,999,4855,0.0019322,0.00061579,0,3791349,0 SPACEBEE-128,1 52182U 22033AB  23045.19385888  .00061579  00000-0  19322-2 0  9999,2 52182  97.3613 128.4951 0007783 244.8041 115.2394 15.32785617 48559,2022-033AB,52182,6845.643,93.947,472.836,462.18,1,2023/4/7
GENERATED VIA SPACETRACK.ORG API,18 SPCS,52182,SPACEBEE-128,PAYLOAD,U,22033AB,2023/2/15 4:09,24224,15.32900677,0.0007739,97.3624,129.4703,241.3356,118.7109,0,999,4868,0.0017486,0.00055879,0,3792806,0 SPACEBEE-128,1 52182U 22033AB  23046.17306741  .00055879  00000-0  17486-2 0  9994,2 52182  97.3624 129.4703 0007739 241.3356 118.7109 15.32900677 48680,2022-033AB,52182,6845.3,93.94,472.463,461.868,1,2023/4/8
GENERATED VIA SPACETRACK.ORG API,18 SPCS,52182,SPACEBEE-128,PAYLOAD,U,22033AB,2023/2/15 4:09,24224,15.32900677,0.0007739,97.3624,129.4703,241.3356,118.7109,0,999,4870,0.0017486,0.00055879,0,3793706,0 SPACEBEE-128,1 52182U 22033AB  23046.17306741  .00055879  00000-0  17486-2 0  9994,2 52182  97.3624 129.4703 0007739 241.3356 118.7109 15.32900677 48703,2022-033AB,52182,6845.3,93.94,472.463,461.868,1,2023/4/9
GENERATED VIA SPACETRACK.ORG API,18 SPCS,52182,SPACEBEE-128,PAYLOAD,U,22033AB,2023/2/15 16:41,234336,15.32974879,0.0007632,97.3624,129.9907,239.795,120.2537,0,999,4876,0.0025262,0.00081219,0,3794932,0 SPACEBEE-128,1 52182U 22033AB  23046.69528049  .00081219  00000-0  25262-2 0  9996,2 52182  97.3624 129.9907 0007632 239.7950 120.2537 15.32974879 48761,2022-033AB,52182,6845.079,93.935,472.168,461.72,1,2023/4/10
GENERATED VIA SPACETRACK.ORG API,18 SPCS,52182,SPACEBEE-128,PAYLOAD,U,22033AB,2023/2/15 16:41,234336,15.32974879,0.0007632,97.3624,129.9907,239.795,120.2537,0,999,4878,0.0025262,0.00081219,0,3795153,0 SPACEBEE-128,1 52182U 22033AB  23046.69528049  .00081219  00000-0  25262-2 0  9996,2 52182  97.3624 129.9907 0007632 239.7950 120.2537 15.32974879 48783,2022-033AB,52182,6845.079,93.935,472.168,461.72,1,2023/4/11
GENERATED VIA SPACETRACK.ORG API,18 SPCS,52182,SPACEBEE-128,PAYLOAD,U,22033AB,2023/2/16 11:29,575712,15.33089634,0.0007707,97.3627,130.7704,236.7405,123.3099,0,999,4890,0.0021492,0.00069228,0,3798293,0 SPACEBEE-128,1 52182U 22033AB  23047.47854833  .00069228  00000-0  21492-2 0  9993,2 52182  97.3627 130.7704 0007707 236.7405 123.3099 15.33089634 48904,2022-033AB,52182,6844.738,93.928,471.878,461.327,1,2023/4/12
GENERATED VIA SPACETRACK.ORG API,18 SPCS,52182,SPACEBEE-128,PAYLOAD,U,22033AB,2023/2/16 16:11,399872,15.33120085,0.0007703,97.3626,130.9656,236.5235,123.5272,0,999,4893,0.0022692,0.00073205,0,3799178,0 SPACEBEE-128,1 52182U 22033AB  23047.67435648  .00073205  00000-0  22692-2 0  9997,2 52182  97.3626 130.9656 0007703 236.5235 123.5272 15.33120085 48930,2022-033AB,52182,6844.647,93.926,471.784,461.24,1,2023/4/13
GENERATED VIA SPACETRACK.ORG API,18 SPCS,52182,SPACEBEE-128,PAYLOAD,U,22033AB,2023/2/16 16:11,399872,15.33120085,0.0007703,97.3626,130.9656,236.5235,123.5272,0,999,4891,0.0022692,0.00073205,0,3799239,0 SPACEBEE-128,1 52182U 22033AB  23047.67435648  .00073205  00000-0  22692-2 0  9997,2 52182  97.3626 130.9656 0007703 236.5235 123.5272 15.33120085 48918,2022-033AB,52182,6844.647,93.926,471.784,461.24,1,2023/4/14
GENERATED VIA SPACETRACK.ORG API,18 SPCS,52182,SPACEBEE-128,PAYLOAD,U,22033AB,2023/2/17 10:58,769280,15.33213839,0.0007728,97.3624,131.7455,233.5389,126.5142,0,999,4903,0.0016486,0.0005318,0,3802338,0 SPACEBEE-128,1 52182U 22033AB  23048.45755520  .00053180  00000-0  16486-2 0  9992,2 52182  97.3624 131.7455 0007728 233.5389 126.5142 15.33213839 49039,2022-033AB,52182,6844.368,93.92,471.522,460.944,1,2023/4/15
GENERATED VIA SPACETRACK.ORG API,18 SPCS,52182,SPACEBEE-128,PAYLOAD,U,22033AB,2023/2/17 10:58,769280,15.33213839,0.0007728,97.3624,131.7455,233.5389,126.5142,0,999,4905,0.0016486,0.0005318,0,3802730,0 SPACEBEE-128,1 52182U 22033AB  23048.45755520  .00053180  00000-0  16486-2 0  9992,2 52182  97.3624 131.7455 0007728 233.5389 126.5142 15.33213839 49051,2022-033AB,52182,6844.368,93.92,471.522,460.944,1,2023/4/16
GENERATED VIA SPACETRACK.ORG API,18 SPCS,52182,SPACEBEE-128,PAYLOAD,U,22033AB,2023/2/18 4:12,980224,15.33281998,0.0007738,97.3624,132.46,230.5978,129.458,0,999,4914,0.0012795,0.00041281,0,3806537,0 SPACEBEE-128,1 52182U 22033AB  23049.17545116  .00041281  00000-0  12795-2 0  9998,2 52182  97.3624 132.4600 0007738 230.5978 129.4580 15.33281998 49142,2022-033AB,52182,6844.165,93.916,471.326,460.734,1,2023/4/17
GENERATED VIA SPACETRACK.ORG API,18 SPCS,52182,SPACEBEE-128,PAYLOAD,U,22033AB,2023/2/18 4:12,980224,15.33281998,0.0007738,97.3624,132.46,230.5978,129.458,0,999,4916,0.0012795,0.00041281,0,3807124,0 SPACEBEE-128,1 52182U 22033AB  23049.17545116  .00041281  00000-0  12795-2 0  9998,2 52182  97.3624 132.4600 0007738 230.5978 129.4580 15.33281998 49164,2022-033AB,52182,6844.165,93.916,471.326,460.734,1,2023/4/18
GENERATED VIA SPACETRACK.ORG API,18 SPCS,52182,SPACEBEE-128,PAYLOAD,U,22033AB,2023/2/19 11:32,281312,15.33396585,0.0007713,97.362,133.7603,225.7726,134.2884,0,999,4934,0.0014016,0.00045415,0,3811377,0 SPACEBEE-128,1 52182U 22033AB  23050.48063983  .00045415  00000-0  14016-2 0  9992,2 52182  97.3620 133.7603 0007713 225.7726 134.2884 15.33396585 49347,2022-033AB,52182,6843.824,93.909,470.968,460.411,1,2023/4/19
GENERATED VIA SPACETRACK.ORG API,18 SPCS,52182,SPACEBEE-128,PAYLOAD,U,22033AB,2023/2/19 11:32,281312,15.33396585,0.0007713,97.362,133.7603,225.7726,134.2884,0,999,4936,0.0014016,0.00045415,0,3811610,0 SPACEBEE-128,1 52182U 22033AB  23050.48063983  .00045415  00000-0  14016-2 0  9992,2 52182  97.3620 133.7603 0007713 225.7726 134.2884 15.33396585 49369,2022-033AB,52182,6843.824,93.909,470.968,460.411,1,2023/4/20
GENERATED VIA SPACETRACK.ORG API,18 SPCS,52182,SPACEBEE-128,PAYLOAD,U,22033AB,2023/2/20 4:45,410048,15.33454588,0.0007779,97.3616,134.4751,223.3598,136.7034,0,999,4947,0.0013046,0.00042328,0,3815761,0 SPACEBEE-128,1 52182U 22033AB  23051.19845382  .00042328  00000-0  13046-2 0  9994,2 52182  97.3616 134.4751 0007779 223.3598 136.7034 15.33454588 49473,2022-033AB,52182,6843.652,93.906,470.84,460.193,1,2023/4/21
GENERATED VIA SPACETRACK.ORG API,18 SPCS,52182,SPACEBEE-128,PAYLOAD,U,22033AB,2023/2/20 18:51,528192,15.33503949,0.0007803,97.361,135.0602,221.547,138.518,0,999,4954,0.0013079,0.00042502,0,3817275,0 SPACEBEE-128,1 52182U 22033AB  23051.78573528  .00042502  00000-0  13079-2 0  9999,2 52182  97.3610 135.0602 0007803 221.5470 138.5180 15.33503949 49542,2022-033AB,52182,6843.505,93.903,470.71,460.03,1,2023/4/22
GENERATED VIA SPACETRACK.ORG API,18 SPCS,52182,SPACEBEE-128,PAYLOAD,U,22033AB,2023/2/21 4:15,926528,15.33541989,0.0007877,97.3615,135.4499,220.3569,139.709,0,999,4962,0.0014261,0.0004643,0,3819803,0 SPACEBEE-128,1 52182U 22033AB  23052.17724452  .00046430  00000-0  14261-2 0  9995,2 52182  97.3615 135.4499 0007877 220.3569 139.7090 15.33541989 49620,2022-033AB,52182,6843.392,93.9,470.647,459.866,1,2023/4/23
GENERATED VIA SPACETRACK.ORG API,18 SPCS,52182,SPACEBEE-128,PAYLOAD,U,22033AB,2023/2/21 18:20,938592,15.33602458,0.0007902,97.3615,136.0341,217.52,142.5492,0,999,4969,0.0015368,0.00050161,0,3820786,0 SPACEBEE-128,1 52182U 22033AB  23052.76449003  .00050161  00000-0  15368-2 0  9991,2 52182  97.3615 136.0341 0007902 217.5200 142.5492 15.33602458 49696,2022-033AB,52182,6843.212,93.897,470.484,459.669,1,2023/4/24
GENERATED VIA SPACETRACK.ORG API,18 SPCS,52182,SPACEBEE-128,PAYLOAD,U,22033AB,2023/2/21 18:20,938592,15.33602458,0.0007902,97.3615,136.0341,217.52,142.5492,0,999,4971,0.0015368,0.00050161,0,3821329,0 SPACEBEE-128,1 52182U 22033AB  23052.76449003  .00050161  00000-0  15368-2 0  9991,2 52182  97.3615 136.0341 0007902 217.5200 142.5492 15.33602458 49719,2022-033AB,52182,6843.212,93.897,470.484,459.669,1,2023/4/25
